{
  "type": "FeatureCollection",
  "features": [
    {
      "type": "Feature",
      "properties": {
        "norad_id": 66582,
        "name": "STARLINK-35746",
        "group": "last-30-days",
        "lat": -27.22549192814666,
        "lon": 137.76012774034166,
        "alt_km": 354.79955975392204,
        "timestamp": "2025-12-04T05:42:42.159101+00:00",
        "meta_object_name": "STARLINK-35746",
        "meta_object_id": "2025-268AB",
        "meta_epoch": "2025-12-03T22:00:03.000096",
        "meta_mean_motion": 15.73336817,
        "meta_eccentricity": 0.00014808,
        "meta_inclination": 42.999,
        "meta_ra_of_asc_node": 173.2174,
        "meta_arg_of_pericenter": 272.9159,
        "meta_mean_anomaly": 23.7773,
        "meta_ephemeris_type": 0,
        "meta_classification_type": "U",
        "meta_norad_cat_id": 66582,
        "meta_element_set_no": 999,
        "meta_rev_at_epoch": 325,
        "meta_bstar": -0.015063148,
        "meta_mean_motion_dot": -0.0187181,
        "meta_mean_motion_ddot": 0,
        "tle_line1": "1 66582U 25268AB  25337.91670139 -.01871810  00000+0 -15063-1 0  9999",
        "tle_line2": "2 66582  42.9990 173.2174 0001480 272.9159  23.7773 15.73336817  3258"
      },
      "geometry": {
        "type": "Point",
        "coordinates": [
          137.76012774034166,
          -27.22549192814666
        ]
      }
    },
    {
      "type": "Feature",
      "properties": {
        "norad_id": 66583,
        "name": "STARLINK-35941",
        "group": "last-30-days",
        "lat": -26.125011603924907,
        "lon": 139.51194378064642,
        "alt_km": 354.78351617120734,
        "timestamp": "2025-12-04T05:42:42.159111+00:00",
        "meta_object_name": "STARLINK-35941",
        "meta_object_id": "2025-268AC",
        "meta_epoch": "2025-12-03T22:00:03.000096",
        "meta_mean_motion": 15.73333937,
        "meta_eccentricity": 0.00014941,
        "meta_inclination": 42.999,
        "meta_ra_of_asc_node": 173.2126,
        "meta_arg_of_pericenter": 270.4948,
        "meta_mean_anomaly": 28.1178,
        "meta_ephemeris_type": 0,
        "meta_classification_type": "U",
        "meta_norad_cat_id": 66583,
        "meta_element_set_no": 999,
        "meta_rev_at_epoch": 325,
        "meta_bstar": -0.015036415,
        "meta_mean_motion_dot": -0.01868738,
        "meta_mean_motion_ddot": 0,
        "tle_line1": "1 66583U 25268AC  25337.91670139 -.01868738  00000+0 -15036-1 0  9995",
        "tle_line2": "2 66583  42.9990 173.2126 0001494 270.4948  28.1178 15.73333937  3258"
      },
      "geometry": {
        "type": "Point",
        "coordinates": [
          139.51194378064642,
          -26.125011603924907
        ]
      }
    },
    {
      "type": "Feature",
      "properties": {
        "norad_id": 66584,
        "name": "STARLINK-35939",
        "group": "last-30-days",
        "lat": -25.00191820597322,
        "lon": 141.23318143553468,
        "alt_km": 354.80899087822945,
        "timestamp": "2025-12-04T05:42:42.159123+00:00",
        "meta_object_name": "STARLINK-35939",
        "meta_object_id": "2025-268AD",
        "meta_epoch": "2025-12-03T22:00:03.000096",
        "meta_mean_motion": 15.73312532,
        "meta_eccentricity": 0.00014925,
        "meta_inclination": 42.9989,
        "meta_ra_of_asc_node": 173.2078,
        "meta_arg_of_pericenter": 267.2264,
        "meta_mean_anomaly": 33.3221,
        "meta_ephemeris_type": 0,
        "meta_classification_type": "U",
        "meta_norad_cat_id": 66584,
        "meta_element_set_no": 999,
        "meta_rev_at_epoch": 325,
        "meta_bstar": -0.014869135,
        "meta_mean_motion_dot": -0.01849181,
        "meta_mean_motion_ddot": 0,
        "tle_line1": "1 66584U 25268AD  25337.91670139 -.01849181  00000+0 -14869-1 0  9990",
        "tle_line2": "2 66584  42.9989 173.2078 0001492 267.2264  33.3221 15.73312532  3251"
      },
      "geometry": {
        "type": "Point",
        "coordinates": [
          141.23318143553468,
          -25.00191820597322
        ]
      }
    },
    {
      "type": "Feature",
      "properties": {
        "norad_id": 66585,
        "name": "STARLINK-35963",
        "group": "last-30-days",
        "lat": -23.864084736608408,
        "lon": 142.91694572668902,
        "alt_km": 354.5547936521489,
        "timestamp": "2025-12-04T05:42:42.159135+00:00",
        "meta_object_name": "STARLINK-35963",
        "meta_object_id": "2025-268AE",
        "meta_epoch": "2025-12-03T22:00:03.000096",
        "meta_mean_motion": 15.73309744,
        "meta_eccentricity": 0.00016797,
        "meta_inclination": 42.9989,
        "meta_ra_of_asc_node": 173.204,
        "meta_arg_of_pericenter": 273.032,
        "meta_mean_anomaly": 29.4291,
        "meta_ephemeris_type": 0,
        "meta_classification_type": "U",
        "meta_norad_cat_id": 66585,
        "meta_element_set_no": 999,
        "meta_rev_at_epoch": 325,
        "meta_bstar": -0.014800122,
        "meta_mean_motion_dot": -0.01841684,
        "meta_mean_motion_ddot": 0,
        "tle_line1": "1 66585U 25268AE  25337.91670139 -.01841684  00000+0 -14800-1 0  9996",
        "tle_line2": "2 66585  42.9989 173.2040 0001679 273.0320  29.4291 15.73309744  3250"
      },
      "geometry": {
        "type": "Point",
        "coordinates": [
          142.91694572668902,
          -23.864084736608408
        ]
      }
    },
    {
      "type": "Feature",
      "properties": {
        "norad_id": 66586,
        "name": "TJS-21",
        "group": "last-30-days",
        "lat": 42.52206930070177,
        "lon": -140.0619507976208,
        "alt_km": 36615.90240069426,
        "timestamp": "2025-12-04T05:42:42.159148+00:00",
        "meta_object_name": "TJS-21",
        "meta_object_id": "2025-269A",
        "meta_epoch": "2025-11-22T00:38:56.616288",
        "meta_mean_motion": 2.0099221,
        "meta_eccentricity": 0.75179873,
        "meta_inclination": 51.0366,
        "meta_ra_of_asc_node": 174.7096,
        "meta_arg_of_pericenter": 225.0489,
        "meta_mean_anomaly": 41.6572,
        "meta_ephemeris_type": 0,
        "meta_classification_type": "U",
        "meta_norad_cat_id": 66586,
        "meta_element_set_no": 999,
        "meta_rev_at_epoch": 2,
        "meta_bstar": 0.00053569978,
        "meta_mean_motion_dot": 3.197e-05,
        "meta_mean_motion_ddot": 0,
        "tle_line1": "1 66586U 25269A   25326.02704417  .00003197  00000+0  53570-3 0  9990",
        "tle_line2": "2 66586  51.0366 174.7096 7517987 225.0489  41.6572  2.00992210    24"
      },
      "geometry": {
        "type": "Point",
        "coordinates": [
          -140.0619507976208,
          42.52206930070177
        ]
      }
    },
    {
      "type": "Feature",
      "properties": {
        "norad_id": 66587,
        "name": "CZ-3B R/B",
        "group": "last-30-days",
        "lat": 47.8068049804344,
        "lon": -126.2660342613192,
        "alt_km": 29960.576772801567,
        "timestamp": "2025-12-04T05:42:42.159166+00:00",
        "meta_object_name": "CZ-3B R/B",
        "meta_object_id": "2025-269B",
        "meta_epoch": "2025-12-02T10:16:46.437600",
        "meta_mean_motion": 2.0223182,
        "meta_eccentricity": 0.75203475,
        "meta_inclination": 51.3575,
        "meta_ra_of_asc_node": 172.0321,
        "meta_arg_of_pericenter": 226.8728,
        "meta_mean_anomaly": 39.3228,
        "meta_ephemeris_type": 0,
        "meta_classification_type": "U",
        "meta_norad_cat_id": 66587,
        "meta_element_set_no": 999,
        "meta_rev_at_epoch": 24,
        "meta_bstar": 0.0019543247,
        "meta_mean_motion_dot": 0.00047329,
        "meta_mean_motion_ddot": -2.45602e-07,
        "tle_line1": "1 66587U 25269B   25336.42831525  .00047329 -24560-6  19543-2 0  9998",
        "tle_line2": "2 66587  51.3575 172.0321 7520347 226.8728  39.3228  2.02231820   242"
      },
      "geometry": {
        "type": "Point",
        "coordinates": [
          -126.2660342613192,
          47.8068049804344
        ]
      }
    },
    {
      "type": "Feature",
      "properties": {
        "norad_id": 66588,
        "name": "STARLINK-36076",
        "group": "last-30-days",
        "lat": 40.33263386261941,
        "lon": -51.07909539614607,
        "alt_km": 333.1789551490001,
        "timestamp": "2025-12-04T05:42:42.159178+00:00",
        "meta_object_name": "STARLINK-36076",
        "meta_object_id": "2025-270A",
        "meta_epoch": "2025-12-03T18:45:54.871776",
        "meta_mean_motion": 15.76501867,
        "meta_eccentricity": 0.00116821,
        "meta_inclination": 42.9973,
        "meta_ra_of_asc_node": 246.0174,
        "meta_arg_of_pericenter": 348.8653,
        "meta_mean_anomaly": 11.1957,
        "meta_ephemeris_type": 0,
        "meta_classification_type": "U",
        "meta_norad_cat_id": 66588,
        "meta_element_set_no": 999,
        "meta_rev_at_epoch": 294,
        "meta_bstar": -0.0017001293,
        "meta_mean_motion_dot": -0.00271785,
        "meta_mean_motion_ddot": 0,
        "tle_line1": "1 66588U 25270A   25337.78188509 -.00271785  00000+0 -17001-2 0  9997",
        "tle_line2": "2 66588  42.9973 246.0174 0011682 348.8653  11.1957 15.76501867  2943"
      },
      "geometry": {
        "type": "Point",
        "coordinates": [
          -51.07909539614607,
          40.33263386261941
        ]
      }
    }
  ]
}